STARLINK-30260          
1 57524U 23115D   26068.18117568  .00003754  00000+0  14595-3 0  9999
2 57524  43.0010   4.4709 0001249 260.1510  99.9201 15.27565637142271
NUSAT-48 (HENRIETTA LE*)
1 60498U 24149AG  26068.80506098  .00012988  00000+0  45212-3 0  9999
2 60498  97.3923 150.8264 0002754 263.3026  96.7901 15.29812597 86946
